{
  "norad_id": 55156,
  "name": "ONEWEB-0614",
  "history": [
    {
      "epoch": "2026-04-11T20:28:43.294368Z",
      "apogee_km": 1218.94693257565,
      "perigee_km": 1216.4144869512147,
      "latitude_deg": 5.130661578119768e-06,
      "longitude_deg": -112.98290162335695,
      "height_km": 1220.3878425085059,
      "semi_major_axis_km": 7595.817709763432,
      "eccentricity": 0.0001667,
      "inclination_deg": 87.8914,
      "raan_deg": 34.2643,
      "arg_perigee_deg": 81.8589,
      "mean_anomaly_deg": 278.2728,
      "mean_motion_rev_day": 13.1141746
    },
    {
      "epoch": "2026-04-13T05:26:19.747680Z",
      "apogee_km": 1218.954192382118,
      "perigee_km": 1216.4070109075838,
      "latitude_deg": 7.003210859017615e-05,
      "longitude_deg": 110.98878707650825,
      "height_km": 1220.3986953799565,
      "semi_major_axis_km": 7595.817601644851,
      "eccentricity": 0.00016767,
      "inclination_deg": 87.8916,
      "raan_deg": 33.9915,
      "arg_perigee_deg": 82.4053,
      "mean_anomaly_deg": 277.7266,
      "mean_motion_rev_day": 13.11417488
    },
    {
      "epoch": "2026-04-14T19:53:32.525088Z",
      "apogee_km": 1218.9773992854516,
      "perigee_km": 1216.3917816160629,
      "latitude_deg": -3.0214106531162583e-05,
      "longitude_deg": -107.71248524246884,
      "height_km": 1220.4063624383157,
      "semi_major_axis_km": 7595.821590450757,
      "eccentricity": 0.0001702,
      "inclination_deg": 87.892,
      "raan_deg": 33.6727,
      "arg_perigee_deg": 82.6845,
      "mean_anomaly_deg": 277.4476,
      "mean_motion_rev_day": 13.11416455
    },
    {
      "epoch": "2026-04-15T19:41:49.128000Z",
      "apogee_km": 1218.9421762723487,
      "perigee_km": 1216.4355537368974,
      "latitude_deg": 7.449687701739616e-05,
      "longitude_deg": -105.95617897914961,
      "height_km": 1220.4091441986172,
      "semi_major_axis_km": 7595.825865004623,
      "eccentricity": 0.000165,
      "inclination_deg": 87.8916,
      "raan_deg": 33.4758,
      "arg_perigee_deg": 82.3805,
      "mean_anomaly_deg": 277.7511,
      "mean_motion_rev_day": 13.11415348
    },
    {
      "epoch": "2026-04-16T12:10:37.547328Z",
      "apogee_km": 1218.9397121474294,
      "perigee_km": 1216.4376471685491,
      "latitude_deg": 5.129273958741535e-06,
      "longitude_deg": 6.028858263927588,
      "height_km": 1220.4107873630078,
      "semi_major_axis_km": 7595.825679657989,
      "eccentricity": 0.0001647,
      "inclination_deg": 87.8916,
      "raan_deg": 33.3394,
      "arg_perigee_deg": 82.4503,
      "mean_anomaly_deg": 277.6812,
      "mean_motion_rev_day": 13.11415396
    },
    {
      "epoch": "2026-04-17T17:28:30.530496Z",
      "apogee_km": 1218.9705123057793,
      "perigee_km": 1216.4154270205845,
      "latitude_deg": -2.350608945539135e-05,
      "longitude_deg": -74.88733240570708,
      "height_km": 1220.4282782810812,
      "semi_major_axis_km": 7595.829969663182,
      "eccentricity": 0.00016819,
      "inclination_deg": 87.8915,
      "raan_deg": 33.0972,
      "arg_perigee_deg": 83.2072,
      "mean_anomaly_deg": 276.9247,
      "mean_motion_rev_day": 13.11414285
    },
    {
      "epoch": "2026-04-18T11:47:11.092704Z",
      "apogee_km": 1218.9757432671558,
      "perigee_km": 1216.4057709038234,
      "latitude_deg": 5.067884956396256e-05,
      "longitude_deg": 9.539944396729949,
      "height_km": 1220.4334415821422,
      "semi_major_axis_km": 7595.82775708549,
      "eccentricity": 0.00016917,
      "inclination_deg": 87.8917,
      "raan_deg": 32.9455,
      "arg_perigee_deg": 83.579,
      "mean_anomaly_deg": 276.5531,
      "mean_motion_rev_day": 13.11414858
    }
  ]
}